NORAD_CAT_ID,OBJECT_NAME,OBJECT_TYPE,EPOCH,MEAN_MOTION,ECCENTRICITY,INCLINATION,RA_OF_ASC_NODE,ARG_OF_PERICENTER,MEAN_ANOMALY,BSTAR,MEAN_MOTION_DOT,MEAN_MOTION_DDOT,TLE_LINE0,TLE_LINE1,TLE_LINE2,SEMIMAJOR_AXIS,PERIOD,APOGEE,PERIGEE,DECAYED
54168.0,STARLINK-5245,PAYLOAD,2022-12-29 08:00:01,15.19096867,0.0001190999999999,53.2172,200.3313,77.6386,295.0981,-0.058637,-0.01148447,0.0,0 STARLINK-5245,1 54168U 22141M   22363.33334491 -.01148447  00000-0 -58637-1 0  9991,2 54168  53.2172 200.3313 0001191  77.6386 295.0981 15.19096867  9776,6886.706,94.793,509.391,507.751,0.0
54168.0,STARLINK-5245,PAYLOAD,2022-12-29 14:00:01,15.18497658,0.0001315,53.2167,199.1919,74.1189,226.2712,-0.060464,-0.01162597,0.0,0 STARLINK-5245,1 54168U 22141M   22363.58334491 -.01162597  00000-0 -60464-1 0  9991,2 54168  53.2167 199.1919 0001315  74.1189 226.2712 15.18497658  1309,6888.517,94.831,511.288,509.477,0.0
54168.0,STARLINK-5245,PAYLOAD,2022-12-30 06:00:00,15.16858323,0.0001139,53.2166,196.1586,70.6461,274.1523,-0.062509,-0.01147495,0.0,0 STARLINK-5245,1 54168U 22141M   22364.25001157 -.01147495  00000-0 -62509-1 0  9998,2 54168  53.2166 196.1586 0001139  70.6461 274.1523 15.16858323  9918,6893.48,94.933,516.13,514.559,0.0
54168.0,STARLINK-5245,PAYLOAD,2022-12-30 14:00:01,15.16070175,0.0001183,53.2166,194.6442,82.2081,283.3124,-0.06604,-0.01182206,0.0,0 STARLINK-5245,1 54168U 22141M   22364.58334491 -.01182206  00000-0 -66040-1 0  9997,2 54168  53.2166 194.6442 0001183  82.2081 283.3124 15.16070175  1303,6895.869000000002,94.982,518.549,516.918,0.0
54168.0,STARLINK-5245,PAYLOAD,2022-12-31 08:00:01,15.14212072,0.0001373,53.2171,191.2441,81.4296,57.1814,-0.067209,-0.01144256,0.0,0 STARLINK-5245,1 54168U 22141M   22365.33334491 -.01144256  00000-0 -67209-1 0  9992,2 54168  53.2171 191.2441 0001373  81.4296  57.1814 15.14212072 10070,6901.509,95.099,524.321,522.4259999999998,0.0
54168.0,STARLINK-5245,PAYLOAD,2022-12-31 14:00:01,15.13616073,0.0001286,53.2164,190.1134,70.8461,351.0168,-0.069649,-0.01164238,0.0,0 STARLINK-5245,1 54168U 22141M   22365.58334491 -.01164238  00000-0 -69649-1 0  9991,2 54168  53.2164 190.1134 0001286  70.8461 351.0168 15.13616073  1300,6903.32,95.136,526.073,524.297,0.0
54168.0,STARLINK-5245,PAYLOAD,2022-12-31 22:00:00,15.12797507,0.0001322,53.2167,188.6088,85.2116,353.4754,-0.070838,-0.01157652,0.0,0 STARLINK-5245,1 54168U 22141M   22365.91667824 -.01157652  00000-0 -70838-1 0  9991,2 54168  53.2167 188.6088 0001322  85.2116 353.4754 15.12797507  1309,6905.81,95.188,528.5880000000002,526.762,0.0
54168.0,STARLINK-5245,PAYLOAD,2023-01-01 08:00:01,15.11769942,0.0001425,53.2171,186.7259,81.2657,107.0814,-0.07188,-0.01142572,0.0,0 STARLINK-5245,1 54168U 22141M   23001.33334491 -.01142572  00000-0 -71880-1 0  9999,2 54168  53.2171 186.7259 0001425  81.2657 107.0814 15.11769942 10225,6908.939,95.253,531.789,529.82,0.0
54168.0,STARLINK-5245,PAYLOAD,2023-01-01 14:00:01,15.11190209,0.0001315999999999,53.2162,185.5996,75.5213,33.8693,-0.076003,-0.01184979,0.0,0 STARLINK-5245,1 54168U 22141M   23001.58334491 -.01184979  00000-0 -76003-1 0  9995,2 54168  53.2162 185.5996 0001316  75.5213  33.8693 15.11190209  1307,6910.706,95.289,533.481,531.6619999999998,0.0
54168.0,STARLINK-5245,PAYLOAD,2023-01-02 00:00:00,15.10137481,0.0001257,53.2169,183.7251,88.5425,128.0724,-0.07452,-0.01132663,0.0,0 STARLINK-5245,1 54168U 22141M   23002.00001157 -.01132663  00000-0 -74520-1 0  9998,2 54168  53.2169 183.7251 0001257  88.5425 128.0724 15.10137481  1305,6913.917,95.356,536.651,534.913,0.0
54168.0,STARLINK-5245,PAYLOAD,2023-01-02 14:00:01,15.09035867,0.0001325,53.2131,181.104,80.0041,68.12100000000001,-0.018161,-0.00279768,0.0,0 STARLINK-5245,1 54168U 22141M   23002.58334491 -.00279768  00000-0 -18161-1 0  9997,2 54168  53.2131 181.1040 0001325  80.0041  68.1210 15.09035867 10418,6917.281999999997,95.425,540.063,538.23,0.0
54168.0,STARLINK-5245,PAYLOAD,2023-01-02 22:00:00,15.08828445,0.0001476,53.2115,179.6105,70.1472,89.7067,0.0018684,0.00029563,0.0,0 STARLINK-5245,1 54168U 22141M   23002.91667824  .00029563  00000-0  18684-2 0  9998,2 54168  53.2115 179.6105 0001476  70.1472  89.7067 15.08828445 10464,6917.916,95.438,540.802,538.76,0.0
54168.0,STARLINK-5245,PAYLOAD,2023-01-03 14:00:01,15.08856435,0.0001582,53.2139,176.616,78.6621,104.3827,-0.010031,-0.00156554,0.0,0 STARLINK-5245,1 54168U 22141M   23003.58334491 -.00156554  00000-0 -10031-1 0  9993,2 54168  53.2139 176.6160 0001582  78.6621 104.3827 15.08856435  1306,6917.83,95.437,540.79,538.601,0.0
54168.0,STARLINK-5245,PAYLOAD,2023-01-03 22:00:00,15.086824900000002,0.0001530999999999,53.2138,175.12099999999995,68.8794,125.7293,0.0088057999999999,0.00142083,0.0,0 STARLINK-5245,1 54168U 22141M   23003.91667824  .00142083  00000-0  88058-2 0  9994,2 54168  53.2138 175.1210 0001531  68.8794 125.7293 15.08682490 10617,6918.361999999999,95.448,541.286,539.168,0.0
54168.0,STARLINK-5245,PAYLOAD,2023-01-04 14:00:01,15.08860092,0.0001565999999999,53.2144,172.1272,78.5737,139.1266,-0.0016155999999999,-0.00025922,0.0,0 STARLINK-5245,1 54168U 22141M   23004.58335648 -.00025922  00000-0 -16156-2 0  9998,2 54168  53.2144 172.1272 0001566  78.5737 139.1266 15.08860092  1303,6917.819,95.436,540.7669999999998,538.601,0.0
54168.0,STARLINK-5245,PAYLOAD,2023-01-04 16:00:00,15.0885674,0.0001582,53.2143,171.7535,75.4235,235.1175,-0.0016622,-0.00026657,0.0,0 STARLINK-5245,1 54168U 22141M   23004.66667824 -.00026657  00000-0 -16622-2 0  9995,2 54168  53.2143 171.7535 0001582  75.4235 235.1175 15.08856740 10734,6917.829000000002,95.436,540.789,538.6,0.0
54168.0,STARLINK-5245,PAYLOAD,2023-01-04 22:00:00,15.08825564,0.0001591,53.2144,170.632,70.0881,159.1661,0.0031850999999999,0.00050748,0.0,0 STARLINK-5245,1 54168U 22141M   23004.91667824  .00050748  00000-0  31851-2 0  9990,2 54168  53.2144 170.6320 0001591  70.0881 159.1661 15.08825564  1301,6917.925,95.438,540.89,538.689,0.0
54168.0,STARLINK-5245,PAYLOAD,2023-01-05 08:00:01,15.08918462,0.0001505,53.2145,168.7592,81.4856,252.3505,-0.0081744,-0.0012835,0.0,0 STARLINK-5245,1 54168U 22141M   23005.33334491 -.00128350  00000-0 -81744-2 0  9991,2 54168  53.2145 168.7592 0001505  81.4856 252.3505 15.08918462 10835,6917.641,95.433,540.547,538.464,0.0
54168.0,STARLINK-5245,PAYLOAD,2023-01-05 14:00:01,15.08833021,0.0001348,53.2147,167.6378,80.8106,171.7646,-0.0016035,-0.00025712,0.0,0 STARLINK-5245,1 54168U 22141M   23005.58334491 -.00025712  00000-0 -16035-2 0  9997,2 54168  53.2147 167.6378 0001348  80.8106 171.7646 15.08833021  1302,6917.901999999999,95.438,540.6990000000002,538.8340000000002,0.0
54168.0,STARLINK-5245,PAYLOAD,2023-01-05 20:00:01,15.08801264,0.0001375,53.2147,166.5165,72.8135,98.4507,0.0017995,0.00028437,0.0,0 STARLINK-5245,1 54168U 22141M   23005.83334491  .00028437  00000-0  17995-2 0  9996,2 54168  53.2147 166.5165 0001375  72.8135  98.4507 15.08801264  1302,6917.999,95.44,540.815,538.913,0.0
54168.0,STARLINK-5245,PAYLOAD,2023-01-06 11:08:33,15.08833986,0.0001279,53.2168,163.6824,82.5257,277.588,-8.9406e-05,-1.7100000000000002e-05,0.0,0 STARLINK-5245,1 54168U 22141M   23006.46427401 -.00001710  00000-0 -89406-4 0  9995,2 54168  53.2168 163.6824 0001279  82.5257 277.5880 15.08833986 11009,6917.899,95.438,540.649,538.879,0.0
54168.0,STARLINK-5245,PAYLOAD,2023-01-06 20:40:51,15.08841157,0.0001286999999999,53.2166,161.8984,82.5479,277.5659,-2.6218e-05,-7.05e-06,0.0,0 STARLINK-5245,1 54168U 22141M   23006.86170716 -.00000705  00000-0 -26218-4 0  9998,2 54168  53.2166 161.8984 0001287  82.5479 277.5659 15.08841157 11068,6917.877,95.437,540.632,538.852,0.0
54168.0,STARLINK-5245,PAYLOAD,2023-01-07 03:02:24,15.08842236,0.000121,53.2163,160.7088,77.6904,282.4223,-0.00011307,-2.087e-05,0.0,0 STARLINK-5245,1 54168U 22141M   23007.12666851 -.00002087  00000-0 -11307-3 0  9995,2 54168  53.2163 160.7088 0001210  77.6904 282.4223 15.08842236 11108,6917.874,95.437,540.576,538.901,0.0
54168.0,STARLINK-5245,PAYLOAD,2023-01-08 02:53:11,15.08829997,0.0001276,53.2161,156.2476,76.7843,283.3292,0.00011436,1.532e-05,0.0,0 STARLINK-5245,1 54168U 22141M   23008.12026757  .00001532  00000-0  11436-3 0  9996,2 54168  53.2161 156.2476 0001276  76.7843 283.3292 15.08829997 11252,6917.911,95.438,540.659,538.893,0.0
54168.0,STARLINK-5245,PAYLOAD,2023-01-09 02:43:58,15.08836746,0.0001335,53.2183,151.7888,86.2286,273.8859,9.2986e-05,1.192e-05,0.0,0 STARLINK-5245,1 54168U 22141M   23009.11386753  .00001192  00000-0  92986-4 0  9993,2 54168  53.2183 151.7888 0001335  86.2286 273.8859 15.08836746 11406,6917.89,95.438,540.679,538.832,0.0
54168.0,STARLINK-5245,PAYLOAD,2023-01-09 15:27:03,15.08838555,0.0001332,53.217,149.4115,83.5896,276.5248,6.284199999999999e-05,7.12e-06,0.0,0 STARLINK-5245,1 54168U 22141M   23009.64378854  .00000712  00000-0  62842-4 0  9999,2 54168  53.2170 149.4115 0001332  83.5896 276.5248 15.08838555 11483,6917.885,95.438,540.6709999999998,538.828,0.0
54168.0,STARLINK-5245,PAYLOAD,2023-01-10 12:07:04,15.08838545,0.0001189,53.2154,145.5448,86.2717,273.8411,2.5717e-05,1.21e-06,0.0,0 STARLINK-5245,1 54168U 22141M   23010.50490989  .00000121  00000-0  25717-4 0  9994,2 54168  53.2154 145.5448 0001189  86.2717 273.8411 15.08838545 11619,6917.885,95.438,540.572,538.927,0.0
54168.0,STARLINK-5245,PAYLOAD,2023-01-10 16:53:13,15.08843158,0.0001365,53.2148,144.6519,87.4223,272.6926,5.0522e-05,5.16e-06,0.0,0 STARLINK-5245,1 54168U 22141M   23010.70362643  .00000516  00000-0  50522-4 0  9991,2 54168  53.2148 144.6519 0001365  87.4223 272.6926 15.08843158 11649,6917.871,95.437,540.68,538.7909999999998,0.0
54168.0,STARLINK-5245,PAYLOAD,2023-01-11 15:08:36,15.08849767,0.0001199,53.2155,140.4883,84.9731,275.1398,0.00010896,1.447e-05,0.0,0 STARLINK-5245,1 54168U 22141M   23011.63097969  .00001447  00000-0  10896-3 0  9993,2 54168  53.2155 140.4883 0001199  84.9731 275.1398 15.08849767 11784,6917.851,95.437,540.545,538.886,0.0
